
  {
    "data": [
        {
            "id": 41,
            "sortname": "AF",
            "name": "Afghanistan",
            "phonecode": "93",
            "nationality": "Afghan",
            "arabicname": "أفغانستان",
            "arabicnationality": "أفغانستاني"
        },
        {
            "id": 108,
            "sortname": "AL",
            "name": "Albania",
            "phonecode": "355",
            "nationality": "Albanian",
            "arabicname": "ألبانيا",
            "arabicnationality": "ألباني"
        },
        {
            "id": 47,
            "sortname": "DZ",
            "name": "Algeria",
            "phonecode": "213",
            "nationality": "Algerian",
            "arabicname": "الجزائر",
            "arabicnationality": "جزائري"
        },
        {
            "id": 167,
            "sortname": "AS",
            "name": "American Samoa",
            "phonecode": "684",
            "nationality": "American Samoan",
            "arabicname": "ساموا-الأمريكي",
            "arabicnationality": "أمريكي سامواني"
        },
        {
            "id": 119,
            "sortname": "AD",
            "name": "Andorra",
            "phonecode": "376",
            "nationality": "Andorran",
            "arabicname": "أندورا",
            "arabicnationality": "أندوري"
        },
        {
            "id": 74,
            "sortname": "AO",
            "name": "Angola",
            "phonecode": "244",
            "nationality": "Angolan",
            "arabicname": "أنغولا",
            "arabicnationality": "أنقولي"
        },
        {
            "id": 221,
            "sortname": "AI",
            "name": "Anguilla",
            "phonecode": "2641",
            "nationality": "Anguillan",
            "arabicname": "أنغويلا",
            "arabicnationality": "أنغويلي"
        },
        {
            "id": 236,
            "sortname": "AQ",
            "name": "Antarctica",
            "phonecode": "6721",
            "nationality": "Antarctican",
            "arabicname": "أنتاركتيكا",
            "arabicnationality": "أنتاركتيكي"
        },
        {
            "id": 223,
            "sortname": "AG",
            "name": "Antigua and Barbuda",
            "phonecode": "2681",
            "nationality": "Antiguan",
            "arabicname": "أنتيغوا وبربودا",
            "arabicnationality": "بربودي"
        },
        {
            "id": 224,
            "sortname": "AG",
            "name": "Antigua and Barbuda",
            "phonecode": "2682",
            "nationality": "Antiguan",
            "arabicname": "أنتيغوا وبربودا",
            "arabicnationality": "بربودي"
        },
        {
            "id": 22,
            "sortname": "AR",
            "name": "Argentina",
            "phonecode": "54",
            "nationality": "Argentinian",
            "arabicname": "الأرجنتين",
            "arabicnationality": "أرجنتيني"
        },
        {
            "id": 117,
            "sortname": "AM",
            "name": "Armenia",
            "phonecode": "374",
            "nationality": "Armenian",
            "arabicname": "أرمينيا",
            "arabicnationality": "أرميني"
        },
        {
            "id": 98,
            "sortname": "AW",
            "name": "Aruba",
            "phonecode": "297",
            "nationality": "Aruban",
            "arabicname": "أروبه",
            "arabicnationality": "أوروبهيني"
        },
        {
            "id": 28,
            "sortname": "AU",
            "name": "Australia",
            "phonecode": "61",
            "nationality": "Australian",
            "arabicname": "أستراليا",
            "arabicnationality": "أسترالي"
        },
        {
            "id": 12,
            "sortname": "AT",
            "name": "Austria",
            "phonecode": "43",
            "nationality": "Austrian",
            "arabicname": "النمسا",
            "arabicnationality": "نمساوي"
        },
        {
            "id": 208,
            "sortname": "AZ",
            "name": "Azerbaijan",
            "phonecode": "994",
            "nationality": "Azerbaijani",
            "arabicname": "أذربيجان",
            "arabicnationality": "أذربيجاني"
        },
        {
            "id": 215,
            "sortname": "BS",
            "name": "Bahamas",
            "phonecode": "1242",
            "nationality": "Bahamian",
            "arabicname": "الباهاماس",
            "arabicnationality": "باهاميسي"
        },
        {
            "id": 201,
            "sortname": "BH",
            "name": "Bahrain",
            "phonecode": "973",
            "nationality": "Bahraini",
            "arabicname": "البحرين",
            "arabicnationality": "بحريني"
        },
        {
            "id": 187,
            "sortname": "BD",
            "name": "Bangladesh",
            "phonecode": "880",
            "nationality": "Bangladeshi",
            "arabicname": "بنغلاديش",
            "arabicnationality": "بنغلاديشي"
        },
        {
            "id": 216,
            "sortname": "BB",
            "name": "Barbados",
            "phonecode": "1246",
            "nationality": "Barbadian",
            "arabicname": "بربادوس",
            "arabicnationality": "بربادوسي"
        },
        {
            "id": 118,
            "sortname": "BY",
            "name": "Belarus",
            "phonecode": "375",
            "nationality": "Belarusian",
            "arabicname": "روسيا البيضاء",
            "arabicnationality": "روسي"
        },
        {
            "id": 5,
            "sortname": "BE",
            "name": "Belgium",
            "phonecode": "32",
            "nationality": "Belgian",
            "arabicname": "بلجيكا",
            "arabicnationality": "بلجيكي"
        },
        {
            "id": 135,
            "sortname": "BZ",
            "name": "Belize",
            "phonecode": "501",
            "nationality": "Belizean",
            "arabicname": "بيليز",
            "arabicnationality": "بيليزي"
        },
        {
            "id": 59,
            "sortname": "BJ",
            "name": "Benin",
            "phonecode": "229",
            "nationality": "Beninese",
            "arabicname": "بنين",
            "arabicnationality": "بنيني"
        },
        {
            "id": 132,
            "sortname": "BM",
            "name": "Bermuda",
            "phonecode": "441",
            "nationality": "Bermudan",
            "arabicname": "جزر برمودا",
            "arabicnationality": "برمودي"
        },
        {
            "id": 203,
            "sortname": "BT",
            "name": "Bhutan",
            "phonecode": "975",
            "nationality": "Bhutanese",
            "arabicname": "بوتان",
            "arabicnationality": "بوتاني"
        },
        {
            "id": 146,
            "sortname": "BO",
            "name": "Bolivia",
            "phonecode": "591",
            "nationality": "Bolivian",
            "arabicname": "بوليفيا",
            "arabicnationality": "بوليفي"
        },
        {
            "id": 127,
            "sortname": "BA",
            "name": "Bosnia and Herzegovina",
            "phonecode": "387",
            "nationality": "Bosnian / Herzegovinian",
            "arabicname": "البوسنة و الهرسك",
            "arabicnationality": "بوسني/هرسكي"
        },
        {
            "id": 94,
            "sortname": "BW",
            "name": "Botswana",
            "phonecode": "267",
            "nationality": "Botswanan",
            "arabicname": "بوتسوانا",
            "arabicnationality": "بوتسواني"
        },
        {
            "id": 23,
            "sortname": "BR",
            "name": "Brazil",
            "phonecode": "55",
            "nationality": "Brazilian",
            "arabicname": "البرازيل",
            "arabicnationality": "برازيلي"
        },
        {
            "id": 76,
            "sortname": "IO",
            "name": "British Indian Ocean Territory",
            "phonecode": "246",
            "nationality": "British Indian Ocean Territory",
            "arabicname": "إقليم المحيط الهندي البريطاني",
            "arabicnationality": "إقليم المحيط الهندي البريطاني"
        },
        {
            "id": 156,
            "sortname": "BN",
            "name": "Brunei Darussalam",
            "phonecode": "673",
            "nationality": "Bruneian",
            "arabicname": "بروني",
            "arabicnationality": "بروني"
        },
        {
            "id": 112,
            "sortname": "BG",
            "name": "Bulgaria",
            "phonecode": "359",
            "nationality": "Bulgarian",
            "arabicname": "بلغاريا",
            "arabicnationality": "بلغاري"
        },
        {
            "id": 56,
            "sortname": "BF",
            "name": "Burkina Faso",
            "phonecode": "226",
            "nationality": "Burkinabe",
            "arabicname": "بوركينا فاسو",
            "arabicnationality": "بوركيني"
        },
        {
            "id": 86,
            "sortname": "BI",
            "name": "Burundi",
            "phonecode": "257",
            "nationality": "Burundian",
            "arabicname": "بوروندي",
            "arabicnationality": "بورونيدي"
        },
        {
            "id": 183,
            "sortname": "KH",
            "name": "Cambodia",
            "phonecode": "855",
            "nationality": "Cambodian",
            "arabicname": "كمبوديا",
            "arabicnationality": "كمبودي"
        },
        {
            "id": 67,
            "sortname": "CM",
            "name": "Cameroon",
            "phonecode": "237",
            "nationality": "Cameroonian",
            "arabicname": "كاميرون",
            "arabicnationality": "كاميروني"
        },
        {
            "id": 214,
            "sortname": "CA",
            "name": "Canada",
            "phonecode": "1112",
            "nationality": "Canadian",
            "arabicname": "كندا",
            "arabicnationality": "كندي"
        },
        {
            "id": 68,
            "sortname": "CV",
            "name": "Cape Verde",
            "phonecode": "238",
            "nationality": "Cape Verdean",
            "arabicname": "الرأس الأخضر",
            "arabicnationality": "الرأس الأخضر"
        },
        {
            "id": 102,
            "sortname": "KY",
            "name": "Cayman Islands",
            "phonecode": "345",
            "nationality": "Caymanian",
            "arabicname": "جزر كايمان",
            "arabicnationality": "كايماني"
        },
        {
            "id": 66,
            "sortname": "CF",
            "name": "Central African Republic",
            "phonecode": "236",
            "nationality": "Central African",
            "arabicname": "جمهورية أفريقيا الوسطى",
            "arabicnationality": "أفريقي"
        },
        {
            "id": 65,
            "sortname": "TD",
            "name": "Chad",
            "phonecode": "235",
            "nationality": "Chadian",
            "arabicname": "تشاد",
            "arabicnationality": "تشادي"
        },
        {
            "id": 24,
            "sortname": "CL",
            "name": "Chile",
            "phonecode": "56",
            "nationality": "Chilean",
            "arabicname": "شيلي",
            "arabicnationality": "شيلي"
        },
        {
            "id": 37,
            "sortname": "CN",
            "name": "China",
            "phonecode": "86",
            "nationality": "Chinese",
            "arabicname": "الصين",
            "arabicnationality": "صيني"
        },
        {
            "id": 213,
            "sortname": "CX",
            "name": "Christmas Island",
            "phonecode": "1061",
            "nationality": "Christmas Islander",
            "arabicname": "جزيرة عيد الميلاد",
            "arabicnationality": "جزيرة عيد الميلاد"
        },
        {
            "id": 218,
            "sortname": "CC",
            "name": "Cocos (Keeling) Islands",
            "phonecode": "2061",
            "nationality": "Cocos Islander",
            "arabicname": "جزر كوكوس",
            "arabicnationality": "جزر كوكوس"
        },
        {
            "id": 25,
            "sortname": "CO",
            "name": "Colombia",
            "phonecode": "57",
            "nationality": "Colombian",
            "arabicname": "كولومبيا",
            "arabicnationality": "كولومبي"
        },
        {
            "id": 226,
            "sortname": "KM",
            "name": "Comoros",
            "phonecode": "2691",
            "nationality": "Comorian",
            "arabicname": "جزر القمر",
            "arabicnationality": "جزر القمر"
        },
        {
            "id": 72,
            "sortname": "CG",
            "name": "Congo",
            "phonecode": "242",
            "nationality": "Congolese",
            "arabicname": "الكونغو",
            "arabicnationality": "كونغي"
        },
        {
            "id": 165,
            "sortname": "CK",
            "name": "Cook Islands",
            "phonecode": "682",
            "nationality": "Cook Islander",
            "arabicname": "جزر كوك",
            "arabicnationality": "جزر كوك"
        },
        {
            "id": 140,
            "sortname": "CR",
            "name": "Costa Rica",
            "phonecode": "506",
            "nationality": "Costa Rican",
            "arabicname": "كوستاريكا",
            "arabicnationality": "كوستاريكي"
        },
        {
            "id": 125,
            "sortname": "HR",
            "name": "Croatia",
            "phonecode": "385",
            "nationality": "Croatian",
            "arabicname": "كرواتيا",
            "arabicnationality": "كوراتي"
        },
        {
            "id": 21,
            "sortname": "CU",
            "name": "Cuba",
            "phonecode": "53",
            "nationality": "Cuban",
            "arabicname": "كوبا",
            "arabicnationality": "كوبي"
        },
        {
            "id": 232,
            "sortname": "CW",
            "name": "Curaçao",
            "phonecode": "5991",
            "nationality": "Curacian",
            "arabicname": "كوراساو",
            "arabicnationality": "كوراساوي"
        },
        {
            "id": 110,
            "sortname": "CY",
            "name": "Cyprus",
            "phonecode": "357",
            "nationality": "Cypriot",
            "arabicname": "قبرص",
            "arabicnationality": "قبرصي"
        },
        {
            "id": 129,
            "sortname": "CZ",
            "name": "Czech Republic",
            "phonecode": "420",
            "nationality": "Czech",
            "arabicname": "الجمهورية التشيكية",
            "arabicnationality": "تشيكي"
        },
        {
            "id": 14,
            "sortname": "DK",
            "name": "Denmark",
            "phonecode": "45",
            "nationality": "Danish",
            "arabicname": "الدانمارك",
            "arabicnationality": "دنماركي"
        },
        {
            "id": 83,
            "sortname": "DJ",
            "name": "Djibouti",
            "phonecode": "253",
            "nationality": "Djiboutian",
            "arabicname": "جيبوتي",
            "arabicnationality": "جيبوتي"
        },
        {
            "id": 177,
            "sortname": "DM",
            "name": "Dominica",
            "phonecode": "767",
            "nationality": "Dominican",
            "arabicname": "دومينيكا",
            "arabicnationality": "دومينيكي"
        },
        {
            "id": 179,
            "sortname": "DO",
            "name": "Dominican Republic",
            "phonecode": "809",
            "nationality": "Dominican",
            "arabicname": "الجمهورية الدومينيكية",
            "arabicnationality": "دومينيكي"
        },
        {
            "id": 148,
            "sortname": "EC",
            "name": "Ecuador",
            "phonecode": "593",
            "nationality": "Ecuadorian",
            "arabicname": "إكوادور",
            "arabicnationality": "إكوادوري"
        },
        {
            "id": 1,
            "sortname": "EG",
            "name": "Egypt",
            "phonecode": "20",
            "nationality": "Egyptian",
            "arabicname": "مصر",
            "arabicnationality": "مصري"
        },
        {
            "id": 137,
            "sortname": "SV",
            "name": "El Salvador",
            "phonecode": "503",
            "nationality": "Salvadoran",
            "arabicname": "إلسلفادور",
            "arabicnationality": "سلفادوري"
        },
        {
            "id": 70,
            "sortname": "GQ",
            "name": "Equatorial Guinea",
            "phonecode": "240",
            "nationality": "Equatorial Guinean",
            "arabicname": "غينيا الاستوائي",
            "arabicnationality": "غيني"
        },
        {
            "id": 97,
            "sortname": "ER",
            "name": "Eritrea",
            "phonecode": "291",
            "nationality": "Eritrean",
            "arabicname": "إريتريا",
            "arabicnationality": "إريتيري"
        },
        {
            "id": 115,
            "sortname": "EE",
            "name": "Estonia",
            "phonecode": "372",
            "nationality": "Estonian",
            "arabicname": "استونيا",
            "arabicnationality": "استوني"
        },
        {
            "id": 81,
            "sortname": "ET",
            "name": "Ethiopia",
            "phonecode": "251",
            "nationality": "Ethiopian",
            "arabicname": "أثيوبيا",
            "arabicnationality": "أثيوبي"
        },
        {
            "id": 134,
            "sortname": "FK",
            "name": "Falkland Islands (Malvinas)",
            "phonecode": "500",
            "nationality": "Falkland Islander",
            "arabicname": "جزر فوكلاند",
            "arabicnationality": "فوكلاندي"
        },
        {
            "id": 99,
            "sortname": "FO",
            "name": "Faroe Islands",
            "phonecode": "298",
            "nationality": "Faroese",
            "arabicname": "جزر فارو",
            "arabicnationality": "جزر فارو"
        },
        {
            "id": 162,
            "sortname": "FJ",
            "name": "Fiji",
            "phonecode": "679",
            "nationality": "Fijian",
            "arabicname": "فيجي",
            "arabicnationality": "فيجي"
        },
        {
            "id": 111,
            "sortname": "FI",
            "name": "Finland",
            "phonecode": "358",
            "nationality": "Finnish",
            "arabicname": "فنلندا",
            "arabicnationality": "فنلندي"
        },
        {
            "id": 6,
            "sortname": "FR",
            "name": "France",
            "phonecode": "33",
            "nationality": "French",
            "arabicname": "فرنسا",
            "arabicnationality": "فرنسي"
        },
        {
            "id": 149,
            "sortname": "GF",
            "name": "French Guiana",
            "phonecode": "594",
            "nationality": "French Guianese",
            "arabicname": "غويانا الفرنسية",
            "arabicnationality": "غويانا الفرنسية"
        },
        {
            "id": 172,
            "sortname": "PF",
            "name": "French Polynesia",
            "phonecode": "689",
            "nationality": "French Polynesian",
            "arabicname": "بولينيزيا الفرنسية",
            "arabicnationality": "بولينيزيي"
        },
        {
            "id": 71,
            "sortname": "GA",
            "name": "Gabon",
            "phonecode": "241",
            "nationality": "Gabonese",
            "arabicname": "الغابون",
            "arabicnationality": "غابوني"
        },
        {
            "id": 50,
            "sortname": "GM",
            "name": "Gambia",
            "phonecode": "220",
            "nationality": "Gambian",
            "arabicname": "غامبيا",
            "arabicnationality": "غامبي"
        },
        {
            "id": 209,
            "sortname": "GE",
            "name": "Georgia",
            "phonecode": "995",
            "nationality": "Georgian",
            "arabicname": "جيورجيا",
            "arabicnationality": "جيورجي"
        },
        {
            "id": 18,
            "sortname": "DE",
            "name": "Germany",
            "phonecode": "49",
            "nationality": "German",
            "arabicname": "ألمانيا",
            "arabicnationality": "ألماني"
        },
        {
            "id": 63,
            "sortname": "GH",
            "name": "Ghana",
            "phonecode": "233",
            "nationality": "Ghanaian",
            "arabicname": "غانا",
            "arabicnationality": "غاني"
        },
        {
            "id": 103,
            "sortname": "GI",
            "name": "Gibraltar",
            "phonecode": "350",
            "nationality": "Gibraltar",
            "arabicname": "جبل طارق",
            "arabicnationality": "جبل طارق"
        },
        {
            "id": 3,
            "sortname": "GR",
            "name": "Greece",
            "phonecode": "30",
            "nationality": "Greek",
            "arabicname": "اليونان",
            "arabicnationality": "يوناني"
        },
        {
            "id": 100,
            "sortname": "GL",
            "name": "Greenland",
            "phonecode": "299",
            "nationality": "Greenlandic",
            "arabicname": "جرينلاند",
            "arabicnationality": "جرينلاندي"
        },
        {
            "id": 133,
            "sortname": "GD",
            "name": "Grenada",
            "phonecode": "473",
            "nationality": "Grenadian",
            "arabicname": "غرينادا",
            "arabicnationality": "غرينادي"
        },
        {
            "id": 145,
            "sortname": "GP",
            "name": "Guadeloupe",
            "phonecode": "590",
            "nationality": "Guadeloupe",
            "arabicname": "جزر جوادلوب",
            "arabicnationality": "جزر جوادلوب"
        },
        {
            "id": 155,
            "sortname": "GU",
            "name": "Guam",
            "phonecode": "671",
            "nationality": "Guamanian",
            "arabicname": "جوام",
            "arabicnationality": "جوامي"
        },
        {
            "id": 136,
            "sortname": "GT",
            "name": "Guatemala",
            "phonecode": "502",
            "nationality": "Guatemalan",
            "arabicname": "غواتيمال",
            "arabicnationality": "غواتيمالي"
        },
        {
            "id": 54,
            "sortname": "GN",
            "name": "Guinea",
            "phonecode": "224",
            "nationality": "Guinean",
            "arabicname": "غينيا",
            "arabicnationality": "غيني"
        },
        {
            "id": 75,
            "sortname": "GW",
            "name": "Guinea-Bissau",
            "phonecode": "245",
            "nationality": "Guinea-Bissauan",
            "arabicname": "غينيا-بيساو",
            "arabicnationality": "غيني"
        },
        {
            "id": 147,
            "sortname": "GY",
            "name": "Guyana",
            "phonecode": "592",
            "nationality": "Guyanese",
            "arabicname": "غيانا",
            "arabicnationality": "غياني"
        },
        {
            "id": 143,
            "sortname": "HT",
            "name": "Haiti",
            "phonecode": "509",
            "nationality": "Haitian",
            "arabicname": "هايتي",
            "arabicnationality": "هايتي"
        },
        {
            "id": 138,
            "sortname": "HN",
            "name": "Honduras",
            "phonecode": "504",
            "nationality": "Honduran",
            "arabicname": "هندوراس",
            "arabicnationality": "هندوراسي"
        },
        {
            "id": 181,
            "sortname": "HK",
            "name": "Hong Kong",
            "phonecode": "852",
            "nationality": "Hongkongese",
            "arabicname": "هونغ كونغ",
            "arabicnationality": "هونغ كونغي"
        },
        {
            "id": 8,
            "sortname": "HU",
            "name": "Hungary",
            "phonecode": "36",
            "nationality": "Hungarian",
            "arabicname": "المجر",
            "arabicnationality": "مجري"
        },
        {
            "id": 107,
            "sortname": "IS",
            "name": "Iceland",
            "phonecode": "354",
            "nationality": "Icelandic",
            "arabicname": "آيسلندا",
            "arabicnationality": "آيسلندي"
        },
        {
            "id": 39,
            "sortname": "IN",
            "name": "India",
            "phonecode": "91",
            "nationality": "Indian",
            "arabicname": "الهند",
            "arabicnationality": "هندي"
        },
        {
            "id": 29,
            "sortname": "ID",
            "name": "Indonesia",
            "phonecode": "62",
            "nationality": "Indonesian",
            "arabicname": "أندونيسيا",
            "arabicnationality": "أندونيسيي"
        },
        {
            "id": 44,
            "sortname": "IR",
            "name": "Iran",
            "phonecode": "98",
            "nationality": "Iranian",
            "arabicname": "إيران",
            "arabicnationality": "إيراني"
        },
        {
            "id": 193,
            "sortname": "IQ",
            "name": "Iraq",
            "phonecode": "964",
            "nationality": "Iraqi",
            "arabicname": "العراق",
            "arabicnationality": "عراقي"
        },
        {
            "id": 106,
            "sortname": "IE",
            "name": "Ireland",
            "phonecode": "353",
            "nationality": "Irish",
            "arabicname": "إيرلندا",
            "arabicnationality": "إيرلندي"
        },
        {
            "id": 9,
            "sortname": "IT",
            "name": "Italy",
            "phonecode": "39",
            "nationality": "Italian",
            "arabicname": "إيطاليا",
            "arabicnationality": "إيطالي"
        },
        {
            "id": 55,
            "sortname": "CI",
            "name": "Ivory Coast",
            "phonecode": "225",
            "nationality": "Ivory Coastian",
            "arabicname": "ساحل العاج",
            "arabicnationality": "ساحل العاج"
        },
        {
            "id": 186,
            "sortname": "JM",
            "name": "Jamaica",
            "phonecode": "876",
            "nationality": "Jamaican",
            "arabicname": "جمايكا",
            "arabicnationality": "جمايكي"
        },
        {
            "id": 34,
            "sortname": "JP",
            "name": "Japan",
            "phonecode": "81",
            "nationality": "Japanese",
            "arabicname": "اليابان",
            "arabicnationality": "ياباني"
        },
        {
            "id": 191,
            "sortname": "JO",
            "name": "Jordan",
            "phonecode": "962",
            "nationality": "Jordanian",
            "arabicname": "الأردن",
            "arabicnationality": "أردني"
        },
        {
            "id": 238,
            "sortname": "KZ",
            "name": "Kazakhstan",
            "phonecode": "7001",
            "nationality": "Kazakh",
            "arabicname": "كازاخستان",
            "arabicnationality": "كازاخستاني"
        },
        {
            "id": 84,
            "sortname": "KE",
            "name": "Kenya",
            "phonecode": "254",
            "nationality": "Kenyan",
            "arabicname": "كينيا",
            "arabicnationality": "كيني"
        },
        {
            "id": 169,
            "sortname": "KI",
            "name": "Kiribati",
            "phonecode": "686",
            "nationality": "I-Kiribati",
            "arabicname": "كيريباتي",
            "arabicnationality": "كيريباتي"
        },
        {
            "id": 180,
            "sortname": "KP",
            "name": "Korea(North Korea)",
            "phonecode": "850",
            "nationality": "North Korean",
            "arabicname": "كوريا الشمالية",
            "arabicnationality": "كوري"
        },
        {
            "id": 35,
            "sortname": "KR",
            "name": "Korea(South Korea)",
            "phonecode": "82",
            "nationality": "South Korean",
            "arabicname": "كوريا الجنوبية",
            "arabicnationality": "كوري"
        },
        {
            "id": 144,
            "sortname": "XK",
            "name": "Kosovo",
            "phonecode": "550",
            "nationality": "Kosovar",
            "arabicname": "كوسوفو",
            "arabicnationality": "كوسيفي"
        },
        {
            "id": 194,
            "sortname": "KW",
            "name": "Kuwait",
            "phonecode": "965",
            "nationality": "Kuwaiti",
            "arabicname": "الكويت",
            "arabicnationality": "كويتي"
        },
        {
            "id": 210,
            "sortname": "KG",
            "name": "Kyrgyzstan",
            "phonecode": "996",
            "nationality": "Kyrgyzstani",
            "arabicname": "قيرغيزستان",
            "arabicnationality": "قيرغيزستاني"
        },
        {
            "id": 184,
            "sortname": "LA",
            "name": "Lao PDR",
            "phonecode": "856",
            "nationality": "Laotian",
            "arabicname": "لاوس",
            "arabicnationality": "لاوسي"
        },
        {
            "id": 114,
            "sortname": "LV",
            "name": "Latvia",
            "phonecode": "371",
            "nationality": "Latvian",
            "arabicname": "لاتفيا",
            "arabicnationality": "لاتيفي"
        },
        {
            "id": 190,
            "sortname": "LB",
            "name": "Lebanon",
            "phonecode": "961",
            "nationality": "Lebanese",
            "arabicname": "لبنان",
            "arabicnationality": "لبناني"
        },
        {
            "id": 93,
            "sortname": "LS",
            "name": "Lesotho",
            "phonecode": "266",
            "nationality": "Basotho",
            "arabicname": "ليسوتو",
            "arabicnationality": "ليوسيتي"
        },
        {
            "id": 61,
            "sortname": "LR",
            "name": "Liberia",
            "phonecode": "231",
            "nationality": "Liberian",
            "arabicname": "ليبيريا",
            "arabicnationality": "ليبيري"
        },
        {
            "id": 49,
            "sortname": "LY",
            "name": "Libya",
            "phonecode": "218",
            "nationality": "Libyan",
            "arabicname": "ليبيا",
            "arabicnationality": "ليبي"
        },
        {
            "id": 131,
            "sortname": "LI",
            "name": "Liechtenstein",
            "phonecode": "423",
            "nationality": "Liechtenstein",
            "arabicname": "ليختنشتين",
            "arabicnationality": "ليختنشتيني"
        },
        {
            "id": 113,
            "sortname": "LT",
            "name": "Lithuania",
            "phonecode": "370",
            "nationality": "Lithuanian",
            "arabicname": "لتوانيا",
            "arabicnationality": "لتوانيي"
        },
        {
            "id": 105,
            "sortname": "LU",
            "name": "Luxembourg",
            "phonecode": "352",
            "nationality": "Luxembourger",
            "arabicname": "لوكسمبورغ",
            "arabicnationality": "لوكسمبورغي"
        },
        {
            "id": 182,
            "sortname": "MO",
            "name": "Macau",
            "phonecode": "853",
            "nationality": "Macanese",
            "arabicname": "ماكاو",
            "arabicnationality": "ماكاوي"
        },
        {
            "id": 128,
            "sortname": "MK",
            "name": "Macedonia",
            "phonecode": "389",
            "nationality": "Macedonian",
            "arabicname": "مقدونيا",
            "arabicnationality": "مقدوني"
        },
        {
            "id": 89,
            "sortname": "MG",
            "name": "Madagascar",
            "phonecode": "261",
            "nationality": "Malagasy",
            "arabicname": "مدغشقر",
            "arabicnationality": "مدغشقري"
        },
        {
            "id": 92,
            "sortname": "MW",
            "name": "Malawi",
            "phonecode": "265",
            "nationality": "Malawian",
            "arabicname": "مالاوي",
            "arabicnationality": "مالاوي"
        },
        {
            "id": 27,
            "sortname": "MY",
            "name": "Malaysia",
            "phonecode": "60",
            "nationality": "Malaysian",
            "arabicname": "ماليزيا",
            "arabicnationality": "ماليزي"
        },
        {
            "id": 189,
            "sortname": "MV",
            "name": "Maldives",
            "phonecode": "960",
            "nationality": "Maldivian",
            "arabicname": "المالديف",
            "arabicnationality": "مالديفي"
        },
        {
            "id": 53,
            "sortname": "ML",
            "name": "Mali",
            "phonecode": "223",
            "nationality": "Malian",
            "arabicname": "مالي",
            "arabicnationality": "مالي"
        },
        {
            "id": 109,
            "sortname": "MT",
            "name": "Malta",
            "phonecode": "356",
            "nationality": "Maltese",
            "arabicname": "مالطا",
            "arabicnationality": "مالطي"
        },
        {
            "id": 175,
            "sortname": "MH",
            "name": "Marshall Islands",
            "phonecode": "692",
            "nationality": "Marshallese",
            "arabicname": "جزر مارشال",
            "arabicnationality": "مارشالي"
        },
        {
            "id": 231,
            "sortname": "MQ",
            "name": "Martinique",
            "phonecode": "5962",
            "nationality": "Martiniquais",
            "arabicname": "مارتينيك",
            "arabicnationality": "مارتينيكي"
        },
        {
            "id": 52,
            "sortname": "MR",
            "name": "Mauritania",
            "phonecode": "222",
            "nationality": "Mauritanian",
            "arabicname": "موريتانيا",
            "arabicnationality": "موريتانيي"
        },
        {
            "id": 60,
            "sortname": "MU",
            "name": "Mauritius",
            "phonecode": "230",
            "nationality": "Mauritian",
            "arabicname": "موريشيوس",
            "arabicnationality": "موريشيوسي"
        },
        {
            "id": 227,
            "sortname": "YT",
            "name": "Mayotte",
            "phonecode": "2692",
            "nationality": "Mahoran",
            "arabicname": "مايوت",
            "arabicnationality": "مايوتي"
        },
        {
            "id": 20,
            "sortname": "MX",
            "name": "Mexico",
            "phonecode": "52",
            "nationality": "Mexican",
            "arabicname": "المكسيك",
            "arabicnationality": "مكسيكي"
        },
        {
            "id": 174,
            "sortname": "FM",
            "name": "Micronesia",
            "phonecode": "691",
            "nationality": "Micronesian",
            "arabicname": "مايكرونيزيا",
            "arabicnationality": "مايكرونيزيي"
        },
        {
            "id": 116,
            "sortname": "MD",
            "name": "Moldova",
            "phonecode": "373",
            "nationality": "Moldovan",
            "arabicname": "مولدافيا",
            "arabicnationality": "مولديفي"
        },
        {
            "id": 120,
            "sortname": "MC",
            "name": "Monaco",
            "phonecode": "377",
            "nationality": "Monacan",
            "arabicname": "موناكو",
            "arabicnationality": "مونيكي"
        },
        {
            "id": 204,
            "sortname": "MN",
            "name": "Mongolia",
            "phonecode": "976",
            "nationality": "Mongolian",
            "arabicname": "منغوليا",
            "arabicnationality": "منغولي"
        },
        {
            "id": 154,
            "sortname": "MS",
            "name": "Montserrat",
            "phonecode": "664",
            "nationality": "Montserratian",
            "arabicname": "مونتسيرات",
            "arabicnationality": "مونتسيراتي"
        },
        {
            "id": 46,
            "sortname": "MA",
            "name": "Morocco",
            "phonecode": "212",
            "nationality": "Moroccan",
            "arabicname": "المغرب",
            "arabicnationality": "مغربي"
        },
        {
            "id": 87,
            "sortname": "MZ",
            "name": "Mozambique",
            "phonecode": "258",
            "nationality": "Mozambican",
            "arabicname": "موزمبيق",
            "arabicnationality": "موزمبيقي"
        },
        {
            "id": 43,
            "sortname": "MM",
            "name": "Myanmar",
            "phonecode": "95",
            "nationality": "Myanmarian",
            "arabicname": "ميانمار",
            "arabicnationality": "ميانماري"
        },
        {
            "id": 222,
            "sortname": "NA",
            "name": "Namibia",
            "phonecode": "2642",
            "nationality": "Namibian",
            "arabicname": "ناميبيا",
            "arabicnationality": "ناميبي"
        },
        {
            "id": 157,
            "sortname": "NR",
            "name": "Nauru",
            "phonecode": "674",
            "nationality": "Nauruan",
            "arabicname": "نورو",
            "arabicnationality": "نوري"
        },
        {
            "id": 205,
            "sortname": "NP",
            "name": "Nepal",
            "phonecode": "977",
            "nationality": "Nepalese",
            "arabicname": "نيبال",
            "arabicnationality": "نيبالي"
        },
        {
            "id": 4,
            "sortname": "NL",
            "name": "Netherlands",
            "phonecode": "31",
            "nationality": "Dutch",
            "arabicname": "هولندا",
            "arabicnationality": "هولندي"
        },
        {
            "id": 233,
            "sortname": "AN",
            "name": "Netherlands Antilles",
            "phonecode": "5992",
            "nationality": "Dutch Antilier",
            "arabicname": "جزر الأنتيل الهولندي",
            "arabicnationality": "هولندي"
        },
        {
            "id": 170,
            "sortname": "NC",
            "name": "New Caledonia",
            "phonecode": "687",
            "nationality": "New Caledonian",
            "arabicname": "كاليدونيا الجديدة",
            "arabicnationality": "كاليدوني"
        },
        {
            "id": 31,
            "sortname": "NZ",
            "name": "New Zealand",
            "phonecode": "64",
            "nationality": "New Zealander",
            "arabicname": "نيوزيلندا",
            "arabicnationality": "نيوزيلندي"
        },
        {
            "id": 139,
            "sortname": "NI",
            "name": "Nicaragua",
            "phonecode": "505",
            "nationality": "Nicaraguan",
            "arabicname": "نيكاراجوا",
            "arabicnationality": "نيكاراجوي"
        },
        {
            "id": 57,
            "sortname": "NE",
            "name": "Niger",
            "phonecode": "227",
            "nationality": "Nigerien",
            "arabicname": "النيجر",
            "arabicnationality": "نيجيري"
        },
        {
            "id": 64,
            "sortname": "NG",
            "name": "Nigeria",
            "phonecode": "234",
            "nationality": "Nigerian",
            "arabicname": "نيجيريا",
            "arabicnationality": "نيجيري"
        },
        {
            "id": 166,
            "sortname": "NU",
            "name": "Niue",
            "phonecode": "683",
            "nationality": "Niuean",
            "arabicname": "ني",
            "arabicnationality": "ني"
        },
        {
            "id": 237,
            "sortname": "NF",
            "name": "Norfolk Island",
            "phonecode": "6722",
            "nationality": "Norfolk Islander",
            "arabicname": "جزيرة نورفولك",
            "arabicnationality": "نورفوليكي"
        },
        {
            "id": 235,
            "sortname": "MP",
            "name": "Northern Mariana Islands",
            "phonecode": "6702",
            "nationality": "Northern Marianan",
            "arabicname": "جزر ماريانا الشمالية",
            "arabicnationality": "ماريني"
        },
        {
            "id": 16,
            "sortname": "NO",
            "name": "Norway",
            "phonecode": "47",
            "nationality": "Norwegian",
            "arabicname": "النرويج",
            "arabicnationality": "نرويجي"
        },
        {
            "id": 197,
            "sortname": "OM",
            "name": "Oman",
            "phonecode": "968",
            "nationality": "Omani",
            "arabicname": "عمان",
            "arabicnationality": "عماني"
        },
        {
            "id": 40,
            "sortname": "PK",
            "name": "Pakistan",
            "phonecode": "92",
            "nationality": "Pakistani",
            "arabicname": "باكستان",
            "arabicnationality": "باكستاني"
        },
        {
            "id": 163,
            "sortname": "PW",
            "name": "Palau",
            "phonecode": "680",
            "nationality": "Palauan",
            "arabicname": "بالاو",
            "arabicnationality": "بالاوي"
        },
        {
            "id": 198,
            "sortname": "PS",
            "name": "Palestine",
            "phonecode": "970",
            "nationality": "Palestinian",
            "arabicname": "فلسطين",
            "arabicnationality": "فلسطيني"
        },
        {
            "id": 200,
            "sortname": "PS",
            "name": "Palestine",
            "phonecode": "972",
            "nationality": "Palestinian",
            "arabicname": "فلسطين",
            "arabicnationality": "فلسطيني"
        },
        {
            "id": 141,
            "sortname": "PA",
            "name": "Panama",
            "phonecode": "507",
            "nationality": "Panamanian",
            "arabicname": "بنما",
            "arabicnationality": "بنمي"
        },
        {
            "id": 158,
            "sortname": "PG",
            "name": "Papua New Guinea",
            "phonecode": "675",
            "nationality": "Papua New Guinean",
            "arabicname": "بابوا غينيا الجديدة",
            "arabicnationality": "بابوي"
        },
        {
            "id": 150,
            "sortname": "PY",
            "name": "Paraguay",
            "phonecode": "595",
            "nationality": "Paraguayan",
            "arabicname": "باراغواي",
            "arabicnationality": "بارغاوي"
        },
        {
            "id": 19,
            "sortname": "PE",
            "name": "Peru",
            "phonecode": "51",
            "nationality": "Peruvian",
            "arabicname": "بيرو",
            "arabicnationality": "بيري"
        },
        {
            "id": 30,
            "sortname": "PH",
            "name": "Philippines",
            "phonecode": "63",
            "nationality": "Filipino",
            "arabicname": "الفليبين",
            "arabicnationality": "فلبيني"
        },
        {
            "id": 17,
            "sortname": "PL",
            "name": "Poland",
            "phonecode": "48",
            "nationality": "Polish",
            "arabicname": "بولونيا",
            "arabicnationality": "بوليني"
        },
        {
            "id": 104,
            "sortname": "PT",
            "name": "Portugal",
            "phonecode": "351",
            "nationality": "Portuguese",
            "arabicname": "البرتغال",
            "arabicnationality": "برتغالي"
        },
        {
            "id": 217,
            "sortname": "PR",
            "name": "Puerto Rico",
            "phonecode": "1787",
            "nationality": "Puerto Rican",
            "arabicname": "بورتو ريكو",
            "arabicnationality": "بورتي"
        },
        {
            "id": 202,
            "sortname": "QA",
            "name": "Qatar",
            "phonecode": "974",
            "nationality": "Qatari",
            "arabicname": "قطر",
            "arabicnationality": "قطري"
        },
        {
            "id": 90,
            "sortname": "RE",
            "name": "Reunion Island",
            "phonecode": "262",
            "nationality": "Reunionese",
            "arabicname": "ريونيون",
            "arabicnationality": "ريونيوني"
        },
        {
            "id": 10,
            "sortname": "RO",
            "name": "Romania",
            "phonecode": "40",
            "nationality": "Romanian",
            "arabicname": "رومانيا",
            "arabicnationality": "روماني"
        },
        {
            "id": 239,
            "sortname": "RU",
            "name": "Russian",
            "phonecode": "7002",
            "nationality": "Russian",
            "arabicname": "روسيا",
            "arabicnationality": "روسي"
        },
        {
            "id": 80,
            "sortname": "RW",
            "name": "Rwanda",
            "phonecode": "250",
            "nationality": "Rwandan",
            "arabicname": "رواندا",
            "arabicnationality": "رواندا"
        },
        {
            "id": 77,
            "sortname": "SH",
            "name": "Saint Helena",
            "phonecode": "247",
            "nationality": "St. Helenian",
            "arabicname": "سانت هيلانة",
            "arabicnationality": "هيلاني"
        },
        {
            "id": 96,
            "sortname": "SH",
            "name": "Saint Helena",
            "phonecode": "290",
            "nationality": "St. Helenian",
            "arabicname": "سانت هيلانة",
            "arabicnationality": "هيلاني"
        },
        {
            "id": 243,
            "sortname": "KN",
            "name": "Saint Kitts and Nevis",
            "phonecode": "8692",
            "nationality": "Kittitian/Nevisian",
            "arabicname": "سانت كيتس ونيفس,",
            "arabicnationality": "سانت كيتس ونيفس"
        },
        {
            "id": 244,
            "sortname": "KN",
            "name": "Saint Kitts and Nevis",
            "phonecode": "8692",
            "nationality": "Kittitian/Nevisian",
            "arabicname": "سانت كيتس ونيفس,",
            "arabicnationality": "سانت كيتس ونيفس"
        },
        {
            "id": 176,
            "sortname": "LC",
            "name": "Saint Pierre and Miquelon",
            "phonecode": "758",
            "nationality": "St. Pierre and Miquelon",
            "arabicname": "سان بيير وميكلون",
            "arabicnationality": "سان بيير وميكلوني"
        },
        {
            "id": 178,
            "sortname": "VC",
            "name": "Saint Vincent and the Grenadines",
            "phonecode": "784",
            "nationality": "Saint Vincent and the Grenadines",
            "arabicname": "سانت فنسنت وجزر غرينادين",
            "arabicnationality": "سانت فنسنت وجزر غرينادين"
        },
        {
            "id": 168,
            "sortname": "WS",
            "name": "Samoa",
            "phonecode": "685",
            "nationality": "Samoan",
            "arabicname": "ساموا",
            "arabicnationality": "ساموي"
        },
        {
            "id": 121,
            "sortname": "SM",
            "name": "San Marino",
            "phonecode": "378",
            "nationality": "Sammarinese",
            "arabicname": "سان مارينو",
            "arabicnationality": "ماريني"
        },
        {
            "id": 69,
            "sortname": "ST",
            "name": "Sao Tome and Principe",
            "phonecode": "239",
            "nationality": "Sao Tomean",
            "arabicname": "ساو تومي وبرينسيبي",
            "arabicnationality": "ساو تومي وبرينسيبي"
        },
        {
            "id": 195,
            "sortname": "SA",
            "name": "Saudi Arabia",
            "phonecode": "966",
            "nationality": "Saudi Arabian",
            "arabicname": "المملكة العربية السعودية",
            "arabicnationality": "سعودي"
        },
        {
            "id": 51,
            "sortname": "SN",
            "name": "Senegal",
            "phonecode": "221",
            "nationality": "Senegalese",
            "arabicname": "السنغال",
            "arabicnationality": "سنغالي"
        },
        {
            "id": 246,
            "sortname": "RS",
            "name": "Serbia",
            "phonecode": "381",
            "nationality": "Serbian",
            "arabicname": "صربيا",
            "arabicnationality": "صربي"
        },
        {
            "id": 78,
            "sortname": "SC",
            "name": "Seychelles",
            "phonecode": "248",
            "nationality": "Seychellois",
            "arabicname": "سيشيل",
            "arabicnationality": "سيشيلي"
        },
        {
            "id": 62,
            "sortname": "SL",
            "name": "Sierra Leone",
            "phonecode": "232",
            "nationality": "Sierra Leonean",
            "arabicname": "سيراليون",
            "arabicnationality": "سيراليوني"
        },
        {
            "id": 32,
            "sortname": "SG",
            "name": "Singapore",
            "phonecode": "65",
            "nationality": "Singaporean",
            "arabicname": "سنغافورة",
            "arabicnationality": "سنغافوري"
        },
        {
            "id": 130,
            "sortname": "SK",
            "name": "Slovakia",
            "phonecode": "421",
            "nationality": "Slovak",
            "arabicname": "سلوفاكيا",
            "arabicnationality": "سولفاكي"
        },
        {
            "id": 126,
            "sortname": "SI",
            "name": "Slovenia",
            "phonecode": "386",
            "nationality": "Slovenian",
            "arabicname": "سلوفينيا",
            "arabicnationality": "سولفيني"
        },
        {
            "id": 160,
            "sortname": "SB",
            "name": "Solomon Islands",
            "phonecode": "677",
            "nationality": "Solomon Island",
            "arabicname": "جزر سليمان",
            "arabicnationality": "جزر سليمان"
        },
        {
            "id": 82,
            "sortname": "SO",
            "name": "Somalia",
            "phonecode": "252",
            "nationality": "Somali",
            "arabicname": "الصومال",
            "arabicnationality": "صومالي"
        },
        {
            "id": 2,
            "sortname": "ZA",
            "name": "South Africa",
            "phonecode": "27",
            "nationality": "South African",
            "arabicname": "جنوب أفريقيا",
            "arabicnationality": "أفريقي"
        },
        {
            "id": 45,
            "sortname": "SS",
            "name": "South Sudan",
            "phonecode": "211",
            "nationality": "South Sudanese",
            "arabicname": "السودان الجنوبي",
            "arabicnationality": "سوادني جنوبي"
        },
        {
            "id": 7,
            "sortname": "ES",
            "name": "Spain",
            "phonecode": "34",
            "nationality": "Spanish",
            "arabicname": "إسبانيا",
            "arabicnationality": "إسباني"
        },
        {
            "id": 42,
            "sortname": "LK",
            "name": "Sri Lanka",
            "phonecode": "94",
            "nationality": "Sri Lankian",
            "arabicname": "سريلانكا",
            "arabicnationality": "سريلانكي"
        },
        {
            "id": 79,
            "sortname": "SD",
            "name": "Sudan",
            "phonecode": "249",
            "nationality": "Sudanese",
            "arabicname": "السودان",
            "arabicnationality": "سوداني"
        },
        {
            "id": 151,
            "sortname": "SR",
            "name": "Suriname",
            "phonecode": "597",
            "nationality": "Surinamese",
            "arabicname": "سورينام",
            "arabicnationality": "سورينامي"
        },
        {
            "id": 225,
            "sortname": "SZ",
            "name": "Swaziland",
            "phonecode": "2683",
            "nationality": "Swazi",
            "arabicname": "سوازيلند",
            "arabicnationality": "سوازيلندي"
        },
        {
            "id": 15,
            "sortname": "SE",
            "name": "Sweden",
            "phonecode": "46",
            "nationality": "Swedish",
            "arabicname": "السويد",
            "arabicnationality": "سويدي"
        },
        {
            "id": 11,
            "sortname": "CH",
            "name": "Switzerland",
            "phonecode": "41",
            "nationality": "Swiss",
            "arabicname": "سويسرا",
            "arabicnationality": "سويسري"
        },
        {
            "id": 192,
            "sortname": "SY",
            "name": "Syria",
            "phonecode": "963",
            "nationality": "Syrian",
            "arabicname": "سوريا",
            "arabicnationality": "سوري"
        },
        {
            "id": 188,
            "sortname": "TW",
            "name": "Taiwan",
            "phonecode": "886",
            "nationality": "Taiwanese",
            "arabicname": "تايوان",
            "arabicnationality": "تايواني"
        },
        {
            "id": 206,
            "sortname": "TJ",
            "name": "Tajikistan",
            "phonecode": "992",
            "nationality": "Tajikistani",
            "arabicname": "طاجيكستان",
            "arabicnationality": "طاجيكستاني"
        },
        {
            "id": 219,
            "sortname": "TZ",
            "name": "Tanzania",
            "phonecode": "2551",
            "nationality": "Tanzanian",
            "arabicname": "تنزانيا",
            "arabicnationality": "تنزانيي"
        },
        {
            "id": 33,
            "sortname": "TH",
            "name": "Thailand",
            "phonecode": "66",
            "nationality": "Thai",
            "arabicname": "تايلندا",
            "arabicnationality": "تايلندي"
        },
        {
            "id": 58,
            "sortname": "TG",
            "name": "Togo",
            "phonecode": "228",
            "nationality": "Togolese",
            "arabicname": "توغو",
            "arabicnationality": "توغي"
        },
        {
            "id": 173,
            "sortname": "TK",
            "name": "Tokelau",
            "phonecode": "690",
            "nationality": "Tokelaian",
            "arabicname": "توكيلاو",
            "arabicnationality": "توكيلاوي"
        },
        {
            "id": 159,
            "sortname": "TO",
            "name": "Tonga",
            "phonecode": "676",
            "nationality": "Tongan",
            "arabicname": "تونغا",
            "arabicnationality": "تونغي"
        },
        {
            "id": 185,
            "sortname": "TT",
            "name": "Trinidad and Tobago",
            "phonecode": "868",
            "nationality": "Trinidadian/Tobagonian",
            "arabicname": "ترينيداد وتوباغو",
            "arabicnationality": "ترينيداد وتوباغو"
        },
        {
            "id": 48,
            "sortname": "TN",
            "name": "Tunisia",
            "phonecode": "216",
            "nationality": "Tunisian",
            "arabicname": "تونس",
            "arabicnationality": "تونسي"
        },
        {
            "id": 38,
            "sortname": "TR",
            "name": "Turkey",
            "phonecode": "90",
            "nationality": "Turkish",
            "arabicname": "تركيا",
            "arabicnationality": "تركي"
        },
        {
            "id": 207,
            "sortname": "TM",
            "name": "Turkmenistan",
            "phonecode": "993",
            "nationality": "Turkmen",
            "arabicname": "تركمانستان",
            "arabicnationality": "تركمانستاني"
        },
        {
            "id": 153,
            "sortname": "TC",
            "name": "Turks and Caicos Islands",
            "phonecode": "649",
            "nationality": "Turks and Caicos Islands",
            "arabicname": "جزر توركس وكايكوس",
            "arabicnationality": "جزر توركس وكايكوس"
        },
        {
            "id": 171,
            "sortname": "TV",
            "name": "Tuvalu",
            "phonecode": "688",
            "nationality": "Tuvaluan",
            "arabicname": "توفالو",
            "arabicnationality": "توفالي"
        },
        {
            "id": 85,
            "sortname": "UG",
            "name": "Uganda",
            "phonecode": "256",
            "nationality": "Ugandan",
            "arabicname": "أوغندا",
            "arabicnationality": "أوغندي"
        },
        {
            "id": 122,
            "sortname": "UA",
            "name": "Ukraine",
            "phonecode": "380",
            "nationality": "Ukrainian",
            "arabicname": "أوكرانيا",
            "arabicnationality": "أوكراني"
        },
        {
            "id": 199,
            "sortname": "AE",
            "name": "United Arab Emirates",
            "phonecode": "971",
            "nationality": "Emirati",
            "arabicname": "الإمارات العربية المتحدة",
            "arabicnationality": "إماراتي"
        },
        {
            "id": 13,
            "sortname": "GB",
            "name": "United Kingdom",
            "phonecode": "44",
            "nationality": "British",
            "arabicname": "المملكة المتحدة",
            "arabicnationality": "بريطاني"
        },
        {
            "id": 245,
            "sortname": "US",
            "name": "United States of America",
            "phonecode": "1",
            "nationality": "American",
            "arabicname": "الولايات المتحدة",
            "arabicnationality": "أمريكي"
        },
        {
            "id": 152,
            "sortname": "UY",
            "name": "Uruguay",
            "phonecode": "598",
            "nationality": "Uruguayan",
            "arabicname": "أورغواي",
            "arabicnationality": "أورغواي"
        },
        {
            "id": 242,
            "sortname": "UM",
            "name": "US Minor Outlying Islands",
            "phonecode": "8082",
            "nationality": "US Minor Outlying Islander",
            "arabicname": "قائمة الولايات والمناطق الأمريكية",
            "arabicnationality": "أمريكي"
        },
        {
            "id": 211,
            "sortname": "UZ",
            "name": "Uzbekistan",
            "phonecode": "998",
            "nationality": "Uzbek",
            "arabicname": "أوزباكستان",
            "arabicnationality": "أوزباكستاني"
        },
        {
            "id": 161,
            "sortname": "VU",
            "name": "Vanuatu",
            "phonecode": "678",
            "nationality": "Vanuatuan",
            "arabicname": "فانواتو",
            "arabicnationality": "فانواتي"
        },
        {
            "id": 212,
            "sortname": "VA",
            "name": "Vatican City",
            "phonecode": "1039",
            "nationality": "Vatican",
            "arabicname": "فنزويلا",
            "arabicnationality": "فاتيكاني"
        },
        {
            "id": 26,
            "sortname": "VE",
            "name": "Venezuela",
            "phonecode": "58",
            "nationality": "Venezuelan",
            "arabicname": "فنزويلا",
            "arabicnationality": "فنزويلي"
        },
        {
            "id": 36,
            "sortname": "VN",
            "name": "Vietnam",
            "phonecode": "84",
            "nationality": "Vietnamese",
            "arabicname": "فيتنام",
            "arabicnationality": "فيتنامي"
        },
        {
            "id": 101,
            "sortname": "VI",
            "name": "Virgin Islands (U.S.)",
            "phonecode": "340",
            "nationality": "American Virgin Islander",
            "arabicname": "الجزر العذراء الأمريكي",
            "arabicnationality": "أمريكي"
        },
        {
            "id": 164,
            "sortname": "WF",
            "name": "Wallis and Futuna Islands",
            "phonecode": "681",
            "nationality": "Wallisian/Futunan",
            "arabicname": "والس وفوتونا",
            "arabicnationality": "فوتوني"
        },
        {
            "id": 196,
            "sortname": "YE",
            "name": "Yemen",
            "phonecode": "967",
            "nationality": "Yemeni",
            "arabicname": "اليمن",
            "arabicnationality": "يمني"
        },
        {
            "id": 88,
            "sortname": "ZM",
            "name": "Zambia",
            "phonecode": "260",
            "nationality": "Zambian",
            "arabicname": "زامبيا",
            "arabicnationality": "زامبياني"
        },
        {
            "id": 91,
            "sortname": "ZW",
            "name": "Zimbabwe",
            "phonecode": "263",
            "nationality": "Zimbabwean",
            "arabicname": "زمبابوي",
            "arabicnationality": "زمبابوي"
        }
    ]
}
